TRANSPORTER-16 OBJECT Z 
1 68439U 26067Z   26183.39511936  .00017799  00000+0  82883-3 0  9992
2 68439  97.4517 141.6908 0003628  52.7622 307.3944 15.19969880 14255
TRANSPORTER-16 OBJECT AA
1 68440U 26067AA  26183.63143678  .00026476  00000+0  11927-2 0  9997
2 68440  97.4515 141.9810 0003870  58.6395 301.5219 15.21025974 14296
HAWK-14C                
1 68441U 26067AB  26183.63744185  .00005447  00000+0  26847-3 0  9991
2 68441  97.4495 141.7555 0003784  52.1070 308.0506 15.18347780 14289
NUSAT-54 (BRANCA MARQU*)
1 68442U 26067AC  26183.66850000  .00005857  00000+0  29215-3 0  9996
2 68442  97.4553 141.8161 0005268  38.0079 322.1526 15.17892218 14289
DB-WALI-WMU             
1 68443U 26067AD  26183.67449767  .00005512  00000+0  27627-3 0  9995
2 68443  97.4562 141.8190 0005484  38.8791 321.2836 15.17749468 14283
SHARJAH-SAT-2           
1 68444U 26067AE  26183.40288875  .00007470  00000+0  35915-3 0  9992
2 68444  97.4583 141.7498 0000693  54.4055 305.7244 15.19094229 14258
DB SKYFORGE CORE TU     
1 68445U 26067AF  26183.62059693  .00005124  00000+0  25892-3 0  9998
2 68445  97.4533 141.7024 0006044  42.2380 317.9319 15.17492969 14272
HADES-SA (SPINNYONE)    
1 68446U 26067AG  26183.63335495  .00020791  00000+0  97691-3 0  9990
2 68446  97.4409 141.7031 0007916  42.2557 317.9287 15.19602299 14273
IRIDE-MS1-EAGLET 2-14   
1 68447U 26067AH  26183.60178208  .00006294  00000+0  30279-3 0  9996
2 68447  97.4529 141.8793 0001608  51.1580 308.9798 15.19139490 14286
HAWK-14A                
1 68448U 26067AJ  26183.63755344  .00005445  00000+0  26837-3 0  9994
2 68448  97.4619 141.9814 0004536  47.6804 312.4814 15.18343370 14286
IRIDE-MS1-EAGLET 2-9    
1 68449U 26067AK  26183.45695867  .00006377  00000+0  31466-3 0  9997
2 68449  97.4520 141.6046 0005006  42.1239 318.0379 15.18239126 14255
IRIDE-MS1-EAGLET 2-13   
1 68450U 26067AL  26183.41114419  .00007239  00000+0  34889-3 0  9994
2 68450  97.4556 141.7094 0002011  28.8810 331.2536 15.19020734 14255
IRIDE-MS1-EAGLET 2-10   
1 68451U 26067AM  26183.60469400  .00006348  00000+0  30571-3 0  9993
2 68451  97.4511 141.8575 0001816  52.0091 308.1307 15.19096335 14286
IRIDE-MS1-EAGLET 2-16   
1 68452U 26067AN  26183.45342010  .00006571  00000+0  32364-3 0  9994
2 68452  97.4557 141.6543 0004766  35.6966 324.4586 15.18293400 14253
IRIDE-MS1-EAGLET 2-11   
1 68453U 26067AP  26183.61023131  .00006509  00000+0  31426-3 0  9992
2 68453  97.4561 141.9065 0002164  26.2058 333.9285 15.18995354 14280
AISSAT 4                
1 68454U 26067AQ  26183.60478750  .00007286  00000+0  36161-3 0  9997
2 68454  97.4584 141.7910 0006031  32.4510 327.7094 15.17981160 14279
DB CHARMS ND            
1 68455U 26067AR  26183.62233227  .00005824  00000+0  29364-3 0  9991
2 68455  97.4590 141.7702 0006244  29.0164 331.1415 15.17515473 14275
PARUS-6U1               
1 68456U 26067AS  26183.41961919  .00007143  00000+0  35762-3 0  9990
2 68456  97.4564 141.5505 0006251  30.6025 329.5572 15.17680466 14245
TRANSPORTER-16 OBJECT AT
1 68457U 26067AT  26183.38127068  .00011712  00000+0  55049-3 0  9993
2 68457  97.4554 141.7453 0000944  56.9771 303.1555 15.19749015 14259
SAL-E                   
1 68458U 26067AU  26183.61013215  .00008565  00000+0  42437-3 0  9997
2 68458  97.4492 141.6654 0006809  38.8972 321.2750 15.17983553 14276
DB GME UT (DB-GLOBE MI*)
1 68459U 26067AV  26183.68781843  .00007144  00000+0  35814-3 0  9997
2 68459  97.4546 141.7810 0006633  29.6481 330.5127 15.17633629 14288
COSMO                   
1 68460U 26067AW  26183.61044076  .00011337  00000+0  55739-3 0  9999
2 68460  97.4503 141.6884 0007002  36.1659 324.0047 15.18172439 14270
IRIDE-MS1-EAGLET 2-12   
1 68461U 26067AX  26183.45185789  .00005989  00000+0  29503-3 0  9995
2 68461  97.4559 141.6602 0004779  38.0147 322.1423 15.18322984 14258
IRIDE-MS1-EAGLET 2-15   
1 68462U 26067AY  26183.68039615  .00006545  00000+0  31675-3 0  9999
2 68462  97.4562 141.9689 0002465  23.5870 336.5477 15.18914290 14292
GARAI-B (UNAMUNO)       
1 68463U 26067AZ  26183.59625182  .00007349  00000+0  36433-3 0  9990
2 68463  97.4541 141.7543 0004658  44.2874 315.8732 15.18023434 14270
FGN-100-D3              
1 68464U 26067BA  26183.59956139  .00005345  00000+0  26746-3 0  9990
2 68464  97.4529 141.7275 0004494  54.8749 305.2906 15.17825945 14277
HOTSAT-2                
1 68465U 26067BB  26183.47241775  .00003700  00000+0  18721-3 0  9998
2 68465  97.4536 141.6001 0004350  43.9271 316.2307 15.17630590 14257
DB-PFW                  
1 68466U 26067BC  26183.68416693  .00008314  00000+0  41401-3 0  9992
2 68466  97.4497 141.7275 0007198  42.8844 317.2950 15.17810921 14135
TRANSPORTER-16 OBJECT BD
1 68467U 26067BD  26183.63089847  .00019338  00000+0  91090-3 0  9992
2 68467  97.4420 141.7119 0007353  43.3473 316.8338 15.19536379 14281
ERMIS-1                 
1 68468U 26067BE  26183.61727933  .00010175  00000+0  50370-3 0  9992
2 68468  97.4560 141.7481 0007189  22.7536 337.4015 15.17959236 14276
