OBJECT_NAME,OBJECT_ID,EPOCH,MEAN_MOTION,ECCENTRICITY,INCLINATION,RA_OF_ASC_NODE,ARG_OF_PERICENTER,MEAN_ANOMALY,EPHEMERIS_TYPE,CLASSIFICATION_TYPE,NORAD_CAT_ID,ELEMENT_SET_NO,REV_AT_EPOCH,BSTAR,MEAN_MOTION_DOT,MEAN_MOTION_DDOT
TRANSPORTER-16 OBJECT Z,2026-067Z,2026-07-02T09:28:58.312704,15.19969880,.0003628,97.4517,141.6908,52.7622,307.3944,0,U,68439,999,1425,.82883E-3,.17799E-3,0
TRANSPORTER-16 OBJECT AA,2026-067AA,2026-07-02T15:09:16.137792,15.21025974,.000387,97.4515,141.9810,58.6395,301.5219,0,U,68440,999,1429,.11927E-2,.26476E-3,0
HAWK-14C,2026-067AB,2026-07-02T15:17:54.975840,15.18347780,.0003784,97.4495,141.7555,52.1070,308.0506,0,U,68441,999,1428,.26847E-3,.5447E-4,0
NUSAT-54 (BRANCA MARQUES),2026-067AC,2026-07-02T16:02:38.400000,15.17892218,.0005268,97.4553,141.8161,38.0079,322.1526,0,U,68442,999,1428,.29215E-3,.5857E-4,0
DB-WALI-WMU,2026-067AD,2026-07-02T16:11:16.598688,15.17749468,.0005484,97.4562,141.8190,38.8791,321.2836,0,U,68443,999,1428,.27627E-3,.5512E-4,0
SHARJAH-SAT-2,2026-067AE,2026-07-02T09:40:09.588000,15.19094229,.0000693,97.4583,141.7498,54.4055,305.7244,0,U,68444,999,1425,.35915E-3,.747E-4,0
DB SKYFORGE CORE TU,2026-067AF,2026-07-02T14:53:39.574752,15.17492969,.0006044,97.4533,141.7024,42.2380,317.9319,0,U,68445,999,1427,.25892E-3,.5124E-4,0
HADES-SA (SPINNYONE),2026-067AG,2026-07-02T15:12:01.867680,15.19602299,.0007916,97.4409,141.7031,42.2557,317.9287,0,U,68446,999,1427,.97691E-3,.20791E-3,0
IRIDE-MS1-EAGLET 2-14,2026-067AH,2026-07-02T14:26:33.971712,15.19139490,.0001608,97.4529,141.8793,51.1580,308.9798,0,U,68447,999,1428,.30279E-3,.6294E-4,0
HAWK-14A,2026-067AJ,2026-07-02T15:18:04.617216,15.18343370,.0004536,97.4619,141.9814,47.6804,312.4814,0,U,68448,999,1428,.26837E-3,.5445E-4,0
IRIDE-MS1-EAGLET 2-9,2026-067AK,2026-07-02T10:58:01.229088,15.18239126,.0005006,97.4520,141.6046,42.1239,318.0379,0,U,68449,999,1425,.31466E-3,.6377E-4,0
IRIDE-MS1-EAGLET 2-13,2026-067AL,2026-07-02T09:52:02.858016,15.19020734,.0002011,97.4556,141.7094,28.8810,331.2536,0,U,68450,999,1425,.34889E-3,.7239E-4,0
IRIDE-MS1-EAGLET 2-10,2026-067AM,2026-07-02T14:30:45.561600,15.19096335,.0001816,97.4511,141.8575,52.0091,308.1307,0,U,68451,999,1428,.30571E-3,.6348E-4,0
IRIDE-MS1-EAGLET 2-16,2026-067AN,2026-07-02T10:52:55.496640,15.18293400,.0004766,97.4557,141.6543,35.6966,324.4586,0,U,68452,999,1425,.32364E-3,.6571E-4,0
IRIDE-MS1-EAGLET 2-11,2026-067AP,2026-07-02T14:38:43.985184,15.18995354,.0002164,97.4561,141.9065,26.2058,333.9285,0,U,68453,999,1428,.31426E-3,.6509E-4,0
AISSAT 4,2026-067AQ,2026-07-02T14:30:53.640000,15.17981160,.0006031,97.4584,141.7910,32.4510,327.7094,0,U,68454,999,1427,.36161E-3,.7286E-4,0
DB CHARMS ND,2026-067AR,2026-07-02T14:56:09.508128,15.17515473,.0006244,97.4590,141.7702,29.0164,331.1415,0,U,68455,999,1427,.29364E-3,.5824E-4,0
PARUS-6U1,2026-067AS,2026-07-02T10:04:15.098016,15.17680466,.0006251,97.4564,141.5505,30.6025,329.5572,0,U,68456,999,1424,.35762E-3,.7143E-4,0
TRANSPORTER-16 OBJECT AT,2026-067AT,2026-07-02T09:09:01.786752,15.19749015,.0000944,97.4554,141.7453,56.9771,303.1555,0,U,68457,999,1425,.55049E-3,.11712E-3,0
SAL-E,2026-067AU,2026-07-02T14:38:35.417760,15.17983553,.0006809,97.4492,141.6654,38.8972,321.2750,0,U,68458,999,1427,.42437E-3,.8565E-4,0
DB GME UT (DB-GLOBE MISSION EARTH-UT),2026-067AV,2026-07-02T16:30:27.512352,15.17633629,.0006633,97.4546,141.7810,29.6481,330.5127,0,U,68459,999,1428,.35814E-3,.7144E-4,0
COSMO,2026-067AW,2026-07-02T14:39:02.081664,15.18172439,.0007002,97.4503,141.6884,36.1659,324.0047,0,U,68460,999,1427,.55739E-3,.11337E-3,0
IRIDE-MS1-EAGLET 2-12,2026-067AX,2026-07-02T10:50:40.521696,15.18322984,.0004779,97.4559,141.6602,38.0147,322.1423,0,U,68461,999,1425,.29503E-3,.5989E-4,0
IRIDE-MS1-EAGLET 2-15,2026-067AY,2026-07-02T16:19:46.227360,15.18914290,.0002465,97.4562,141.9689,23.5870,336.5477,0,U,68462,999,1429,.31675E-3,.6545E-4,0
GARAI-B (UNAMUNO),2026-067AZ,2026-07-02T14:18:36.157248,15.18023434,.0004658,97.4541,141.7543,44.2874,315.8732,0,U,68463,999,1427,.36433E-3,.7349E-4,0
FGN-100-D3,2026-067BA,2026-07-02T14:23:22.104096,15.17825945,.0004494,97.4529,141.7275,54.8749,305.2906,0,U,68464,999,1427,.26746E-3,.5345E-4,0
HOTSAT-2,2026-067BB,2026-07-02T11:20:16.893600,15.17630590,.000435,97.4536,141.6001,43.9271,316.2307,0,U,68465,999,1425,.18721E-3,.37E-4,0
DB-PFW,2026-067BC,2026-07-02T16:25:12.022752,15.17810921,.0007198,97.4497,141.7275,42.8844,317.2950,0,U,68466,999,1413,.41401E-3,.8314E-4,0
TRANSPORTER-16 OBJECT BD,2026-067BD,2026-07-02T15:08:29.627808,15.19536379,.0007353,97.4420,141.7119,43.3473,316.8338,0,U,68467,999,1428,.9109E-3,.19338E-3,0
ERMIS-1,2026-067BE,2026-07-02T14:48:52.934112,15.17959236,.0007189,97.4560,141.7481,22.7536,337.4015,0,U,68468,999,1427,.5037E-3,.10175E-3,0
